[
  {
    "COMMENT": "GENERATED VIA SPACETRACK.ORG API",
    "ORIGINATOR": "18 SPCS",
    "NORAD_CAT_ID": "43437",
    "OBJECT_NAME": "SENTINEL 3B",
    "OBJECT_TYPE": "PAYLOAD",
    "CLASSIFICATION_TYPE": "U",
    "INTLDES": "18039A",
    "EPOCH": "2023-04-08 11:46:17",
    "EPOCH_MICROSECONDS": "867712",
    "MEAN_MOTION": "14.26731164",
    "ECCENTRICITY": "0.0001484",
    "INCLINATION": "98.6331",
    "RA_OF_ASC_NODE": "166.5612",
    "ARG_OF_PERICENTER": "95.8795",
    "MEAN_ANOMALY": "264.2555",
    "EPHEMERIS_TYPE": "0",
    "ELEMENT_SET_NO": "999",
    "REV_AT_EPOCH": "25790",
    "BSTAR": "0.000084116",
    "MEAN_MOTION_DOT": "0.0000016",
    "MEAN_MOTION_DDOT": "0",
    "FILE": "3883355",
    "TLE_LINE0": "0 SENTINEL 3B",
    "TLE_LINE1": "1 43437U 18039A   23098.49048458  .00000160  00000-0  84116-4 0  9997",
    "TLE_LINE2": "2 43437  98.6331 166.5612 0001484  95.8795 264.2555 14.26731164257907",
    "OBJECT_ID": "2018-039A",
    "OBJECT_NUMBER": "43437",
    "SEMIMAJOR_AXIS": "7180.815",
    "PERIOD": "100.930",
    "APOGEE": "803.746",
    "PERIGEE": "801.614",
    "DECAYED": "0"
  },
  {
    "COMMENT": "GENERATED VIA SPACETRACK.ORG API",
    "ORIGINATOR": "18 SPCS",
    "NORAD_CAT_ID": "43437",
    "OBJECT_NAME": "SENTINEL 3B",
    "OBJECT_TYPE": "PAYLOAD",
    "CLASSIFICATION_TYPE": "U",
    "INTLDES": "18039A",
    "EPOCH": "2023-04-08 13:27:17",
    "EPOCH_MICROSECONDS": "112672",
    "MEAN_MOTION": "14.26731199",
    "ECCENTRICITY": "0.0001484",
    "INCLINATION": "98.633",
    "RA_OF_ASC_NODE": "166.6304",
    "ARG_OF_PERICENTER": "95.8049",
    "MEAN_ANOMALY": "264.33",
    "EPHEMERIS_TYPE": "0",
    "ELEMENT_SET_NO": "999",
    "REV_AT_EPOCH": "25791",
    "BSTAR": "0.000084073",
    "MEAN_MOTION_DOT": "0.0000016",
    "MEAN_MOTION_DDOT": "0",
    "FILE": "3883527",
    "TLE_LINE0": "0 SENTINEL 3B",
    "TLE_LINE1": "1 43437U 18039A   23098.56061473  .00000160  00000-0  84073-4 0  9999",
    "TLE_LINE2": "2 43437  98.6330 166.6304 0001484  95.8049 264.3300 14.26731199257915",
    "OBJECT_ID": "2018-039A",
    "OBJECT_NUMBER": "43437",
    "SEMIMAJOR_AXIS": "7180.815",
    "PERIOD": "100.930",
    "APOGEE": "803.746",
    "PERIGEE": "801.614",
    "DECAYED": "0"
  },
  {
    "COMMENT": "GENERATED VIA SPACETRACK.ORG API",
    "ORIGINATOR": "18 SPCS",
    "NORAD_CAT_ID": "43437",
    "OBJECT_NAME": "SENTINEL 3B",
    "OBJECT_TYPE": "PAYLOAD",
    "CLASSIFICATION_TYPE": "U",
    "INTLDES": "18039A",
    "EPOCH": "2023-04-09 13:01:06",
    "EPOCH_MICROSECONDS": "503232",
    "MEAN_MOTION": "14.26731691",
    "ECCENTRICITY": "0.0001453",
    "INCLINATION": "98.6329",
    "RA_OF_ASC_NODE": "167.5991",
    "ARG_OF_PERICENTER": "95.3417",
    "MEAN_ANOMALY": "264.7929",
    "EPHEMERIS_TYPE": "0",
    "ELEMENT_SET_NO": "999",
    "REV_AT_EPOCH": "25805",
    "BSTAR": "0.00008926",
    "MEAN_MOTION_DOT": "0.00000172",
    "MEAN_MOTION_DDOT": "0",
    "FILE": "3884332",
    "TLE_LINE0": "0 SENTINEL 3B",
    "TLE_LINE1": "1 43437U 18039A   23099.54243638  .00000172  00000-0  89260-4 0  9999",
    "TLE_LINE2": "2 43437  98.6329 167.5991 0001453  95.3417 264.7929 14.26731691258059",
    "OBJECT_ID": "2018-039A",
    "OBJECT_NUMBER": "43437",
    "SEMIMAJOR_AXIS": "7180.813",
    "PERIOD": "100.930",
    "APOGEE": "803.722",
    "PERIGEE": "801.635",
    "DECAYED": "0"
  },
  {
    "COMMENT": "GENERATED VIA SPACETRACK.ORG API",
    "ORIGINATOR": "18 SPCS",
    "NORAD_CAT_ID": "43437",
    "OBJECT_NAME": "SENTINEL 3B",
    "OBJECT_TYPE": "PAYLOAD",
    "CLASSIFICATION_TYPE": "U",
    "INTLDES": "18039A",
    "EPOCH": "2023-04-09 19:45:03",
    "EPOCH_MICROSECONDS": "466656",
    "MEAN_MOTION": "14.26731867",
    "ECCENTRICITY": "0.0001444",
    "INCLINATION": "98.6329",
    "RA_OF_ASC_NODE": "167.8758",
    "ARG_OF_PERICENTER": "95.2297",
    "MEAN_ANOMALY": "264.9048",
    "EPHEMERIS_TYPE": "0",
    "ELEMENT_SET_NO": "999",
    "REV_AT_EPOCH": "25809",
    "BSTAR": "0.000092656",
    "MEAN_MOTION_DOT": "0.00000181",
    "MEAN_MOTION_DDOT": "0",
    "FILE": "3884463",
    "TLE_LINE0": "0 SENTINEL 3B",
    "TLE_LINE1": "1 43437U 18039A   23099.82295679  .00000181  00000-0  92656-4 0  9995",
    "TLE_LINE2": "2 43437  98.6329 167.8758 0001444  95.2297 264.9048 14.26731867258091",
    "OBJECT_ID": "2018-039A",
    "OBJECT_NUMBER": "43437",
    "SEMIMAJOR_AXIS": "7180.813",
    "PERIOD": "100.930",
    "APOGEE": "803.715",
    "PERIGEE": "801.641",
    "DECAYED": "0"
  },
  {
    "COMMENT": "GENERATED VIA SPACETRACK.ORG API",
    "ORIGINATOR": "18 SPCS",
    "NORAD_CAT_ID": "43437",
    "OBJECT_NAME": "SENTINEL 3B",
    "OBJECT_TYPE": "PAYLOAD",
    "CLASSIFICATION_TYPE": "U",
    "INTLDES": "18039A",
    "EPOCH": "2023-04-09 21:26:02",
    "EPOCH_MICROSECONDS": "706432",
    "MEAN_MOTION": "14.26731906",
    "ECCENTRICITY": "0.0001438",
    "INCLINATION": "98.6329",
    "RA_OF_ASC_NODE": "167.9451",
    "ARG_OF_PERICENTER": "95.0222",
    "MEAN_ANOMALY": "265.1123",
    "EPHEMERIS_TYPE": "0",
    "ELEMENT_SET_NO": "999",
    "REV_AT_EPOCH": "25810",
    "BSTAR": "0.000093801",
    "MEAN_MOTION_DOT": "0.00000183",
    "MEAN_MOTION_DDOT": "0",
    "FILE": "3884641",
    "TLE_LINE0": "0 SENTINEL 3B",
    "TLE_LINE1": "1 43437U 18039A   23099.89308688  .00000183  00000-0  93801-4 0  9992",
    "TLE_LINE2": "2 43437  98.6329 167.9451 0001438  95.0222 265.1123 14.26731906258104",
    "OBJECT_ID": "2018-039A",
    "OBJECT_NUMBER": "43437",
    "SEMIMAJOR_AXIS": "7180.813",
    "PERIOD": "100.930",
    "APOGEE": "803.710",
    "PERIGEE": "801.645",
    "DECAYED": "0"
  },
  {
    "COMMENT": "GENERATED VIA SPACETRACK.ORG API",
    "ORIGINATOR": "18 SPCS",
    "NORAD_CAT_ID": "43437",
    "OBJECT_NAME": "SENTINEL 3B",
    "OBJECT_TYPE": "PAYLOAD",
    "CLASSIFICATION_TYPE": "U",
    "INTLDES": "18039A",
    "EPOCH": "2023-04-10 04:09:59",
    "EPOCH_MICROSECONDS": "669856",
    "MEAN_MOTION": "14.26732113",
    "ECCENTRICITY": "0.0001433",
    "INCLINATION": "98.6328",
    "RA_OF_ASC_NODE": "168.2218",
    "ARG_OF_PERICENTER": "94.8401",
    "MEAN_ANOMALY": "265.2943",
    "EPHEMERIS_TYPE": "0",
    "ELEMENT_SET_NO": "999",
    "REV_AT_EPOCH": "25814",
    "BSTAR": "0.000098222",
    "MEAN_MOTION_DOT": "0.00000194",
    "MEAN_MOTION_DDOT": "0",
    "FILE": "3885195",
    "TLE_LINE0": "0 SENTINEL 3B",
    "TLE_LINE1": "1 43437U 18039A   23100.17360729  .00000194  00000-0  98222-4 0  9994",
    "TLE_LINE2": "2 43437  98.6328 168.2218 0001433  94.8401 265.2943 14.26732113258145",
    "OBJECT_ID": "2018-039A",
    "OBJECT_NUMBER": "43437",
    "SEMIMAJOR_AXIS": "7180.812",
    "PERIOD": "100.930",
    "APOGEE": "803.706",
    "PERIGEE": "801.648",
    "DECAYED": "0"
  },
  {
    "COMMENT": "GENERATED VIA SPACETRACK.ORG API",
    "ORIGINATOR": "18 SPCS",
    "NORAD_CAT_ID": "43437",
    "OBJECT_NAME": "SENTINEL 3B",
    "OBJECT_TYPE": "PAYLOAD",
    "CLASSIFICATION_TYPE": "U",
    "INTLDES": "18039A",
    "EPOCH": "2023-04-10 19:18:52",
    "EPOCH_MICROSECONDS": "812288",
    "MEAN_MOTION": "14.26732481",
    "ECCENTRICITY": "0.0001436",
    "INCLINATION": "98.6327",
    "RA_OF_ASC_NODE": "168.8445",
    "ARG_OF_PERICENTER": "94.7234",
    "MEAN_ANOMALY": "265.4111",
    "EPHEMERIS_TYPE": "0",
    "ELEMENT_SET_NO": "999",
    "REV_AT_EPOCH": "25823",
    "BSTAR": "0.000099605",
    "MEAN_MOTION_DOT": "0.00000197",
    "MEAN_MOTION_DDOT": "0",
    "FILE": "3885363",
    "TLE_LINE0": "0 SENTINEL 3B",
    "TLE_LINE1": "1 43437U 18039A   23100.80477792  .00000197  00000-0  99605-4 0  9992",
    "TLE_LINE2": "2 43437  98.6327 168.8445 0001436  94.7234 265.4111 14.26732481258235",
    "OBJECT_ID": "2018-039A",
    "OBJECT_NUMBER": "43437",
    "SEMIMAJOR_AXIS": "7180.811",
    "PERIOD": "100.930",
    "APOGEE": "803.707",
    "PERIGEE": "801.644",
    "DECAYED": "0"
  },
  {
    "COMMENT": "GENERATED VIA SPACETRACK.ORG API",
    "ORIGINATOR": "18 SPCS",
    "NORAD_CAT_ID": "43437",
    "OBJECT_NAME": "SENTINEL 3B",
    "OBJECT_TYPE": "PAYLOAD",
    "CLASSIFICATION_TYPE": "U",
    "INTLDES": "18039A",
    "EPOCH": "2023-04-11 05:24:48",
    "EPOCH_MICROSECONDS": "249216",
    "MEAN_MOTION": "14.2673264",
    "ECCENTRICITY": "0.000144",
    "INCLINATION": "98.6327",
    "RA_OF_ASC_NODE": "169.2596",
    "ARG_OF_PERICENTER": "94.406",
    "MEAN_ANOMALY": "265.7285",
    "EPHEMERIS_TYPE": "0",
    "ELEMENT_SET_NO": "999",
    "REV_AT_EPOCH": "25829",
    "BSTAR": "0.000096328",
    "MEAN_MOTION_DOT": "0.00000189",
    "MEAN_MOTION_DDOT": "0",
    "FILE": "3885783",
    "TLE_LINE0": "0 SENTINEL 3B",
    "TLE_LINE1": "1 43437U 18039A   23101.22555844  .00000189  00000-0  96328-4 0  9994",
    "TLE_LINE2": "2 43437  98.6327 169.2596 0001440  94.4060 265.7285 14.26732640258294",
    "OBJECT_ID": "2018-039A",
    "OBJECT_NUMBER": "43437",
    "SEMIMAJOR_AXIS": "7180.810",
    "PERIOD": "100.930",
    "APOGEE": "803.709",
    "PERIGEE": "801.641",
    "DECAYED": "0"
  }
]